{
  "links" : {
    "next" : "https://api.nasa.gov/neo/rest/v1/feed?start_date=2015-03-23&end_date=2015-03-23&detailed=true&api_key=t0TVs3DtDT2H8Oy2Zy8m2eVrNsAVKAexjcZXUckd",
    "prev" : "https://api.nasa.gov/neo/rest/v1/feed?start_date=2015-03-21&end_date=2015-03-21&detailed=true&api_key=t0TVs3DtDT2H8Oy2Zy8m2eVrNsAVKAexjcZXUckd",
    "self" : "https://api.nasa.gov/neo/rest/v1/feed?start_date=2015-03-22&end_date=2015-03-22&detailed=true&api_key=t0TVs3DtDT2H8Oy2Zy8m2eVrNsAVKAexjcZXUckd"
  },
  "element_count" : 6,
  "near_earth_objects" : {
    "2015-03-22" : [ {
      "links" : {
        "self" : "https://api.nasa.gov/neo/rest/v1/neo/3712665?api_key=t0TVs3DtDT2H8Oy2Zy8m2eVrNsAVKAexjcZXUckd"
      },
      "neo_reference_id" : "3712665",
      "name" : "(2015 DJ215)",
      "nasa_jpl_url" : "http://ssd.jpl.nasa.gov/sbdb.cgi?sstr=3712665",
      "absolute_magnitude_h" : 24.0,
      "estimated_diameter" : {
        "kilometers" : {
          "estimated_diameter_min" : 0.0421264611,
          "estimated_diameter_max" : 0.0941976306
        },
        "meters" : {
          "estimated_diameter_min" : 42.1264610556,
          "estimated_diameter_max" : 94.1976305719
        },
        "miles" : {
          "estimated_diameter_min" : 0.0261761612,
          "estimated_diameter_max" : 0.0585316759
        },
        "feet" : {
          "estimated_diameter_min" : 138.2101784897,
          "estimated_diameter_max" : 309.0473542854
        }
      },
      "is_potentially_hazardous_asteroid" : false,
      "close_approach_data" : [ {
        "close_approach_date" : "2015-03-22",
        "epoch_date_close_approach" : 1427007600000,
        "relative_velocity" : {
          "kilometers_per_second" : "6.614848155",
          "kilometers_per_hour" : "23813.4533578415",
          "miles_per_hour" : "14796.753837821"
        },
        "miss_distance" : {
          "astronomical" : "0.0830033824",
          "lunar" : "32.2883148193",
          "kilometers" : "12417129",
          "miles" : "7715646"
        },
        "orbiting_body" : "Earth"
      } ],
      "orbital_data" : {
        "orbit_id" : "12",
        "orbit_determination_date" : "2017-04-06 08:35:18",
        "orbit_uncertainty" : "4",
        "minimum_orbit_intersection" : ".0109591",
        "jupiter_tisserand_invariant" : "5.516",
        "epoch_osculation" : "2458000.5",
        "eccentricity" : ".1483967510987464",
        "semi_major_axis" : "1.132196999251865",
        "inclination" : "4.069632203267333",
        "ascending_node_longitude" : "2.583070805553164",
        "orbital_period" : "440.0291283039898",
        "perihelion_distance" : ".964182642959138",
        "perihelion_argument" : "233.2488045964447",
        "aphelion_distance" : "1.300211355544591",
        "perihelion_time" : "2458030.211924425665",
        "mean_anomaly" : "335.6918528678629",
        "mean_motion" : ".8181276575656545",
        "equinox" : "J2000"
      }
    }, {
      "links" : {
        "self" : "https://api.nasa.gov/neo/rest/v1/neo/3715693?api_key=t0TVs3DtDT2H8Oy2Zy8m2eVrNsAVKAexjcZXUckd"
      },
      "neo_reference_id" : "3715693",
      "name" : "(2015 GW12)",
      "nasa_jpl_url" : "http://ssd.jpl.nasa.gov/sbdb.cgi?sstr=3715693",
      "absolute_magnitude_h" : 23.8,
      "estimated_diameter" : {
        "kilometers" : {
          "estimated_diameter_min" : 0.046190746,
          "estimated_diameter_max" : 0.1032856481
        },
        "meters" : {
          "estimated_diameter_min" : 46.1907460282,
          "estimated_diameter_max" : 103.2856480504
        },
        "miles" : {
          "estimated_diameter_min" : 0.0287015901,
          "estimated_diameter_max" : 0.0641787064
        },
        "feet" : {
          "estimated_diameter_min" : 151.544447199,
          "estimated_diameter_max" : 338.8636855496
        }
      },
      "is_potentially_hazardous_asteroid" : false,
      "close_approach_data" : [ {
        "close_approach_date" : "2015-03-22",
        "epoch_date_close_approach" : 1427007600000,
        "relative_velocity" : {
          "kilometers_per_second" : "11.0558162045",
          "kilometers_per_hour" : "39800.9383360218",
          "miles_per_hour" : "24730.7552677353"
        },
        "miss_distance" : {
          "astronomical" : "0.1058575134",
          "lunar" : "41.1785736084",
          "kilometers" : "15836059",
          "miles" : "9840071"
        },
        "orbiting_body" : "Earth"
      } ],
      "orbital_data" : {
        "orbit_id" : "6",
        "orbit_determination_date" : "2017-04-06 08:34:28",
        "orbit_uncertainty" : "7",
        "minimum_orbit_intersection" : ".08423",
        "jupiter_tisserand_invariant" : "4.919",
        "epoch_osculation" : "2458000.5",
        "eccentricity" : ".2830241146096246",
        "semi_major_axis" : "1.304727590562162",
        "inclination" : "14.27811093606371",
        "ascending_node_longitude" : "191.0886964120471",
        "orbital_period" : "544.3499612936251",
        "perihelion_distance" : ".9354582194365573",
        "perihelion_argument" : "285.7866297622906",
        "aphelion_distance" : "1.673996961687767",
        "perihelion_time" : "2458139.550844106135",
        "mean_anomaly" : "268.0402178053852",
        "mean_motion" : ".6613392589290811",
        "equinox" : "J2000"
      }
    }, {
      "links" : {
        "self" : "https://api.nasa.gov/neo/rest/v1/neo/3750676?api_key=t0TVs3DtDT2H8Oy2Zy8m2eVrNsAVKAexjcZXUckd"
      },
      "neo_reference_id" : "3750676",
      "name" : "(2016 GK135)",
      "nasa_jpl_url" : "http://ssd.jpl.nasa.gov/sbdb.cgi?sstr=3750676",
      "absolute_magnitude_h" : 28.1,
      "estimated_diameter" : {
        "kilometers" : {
          "estimated_diameter_min" : 0.0063760979,
          "estimated_diameter_max" : 0.0142573883
        },
        "meters" : {
          "estimated_diameter_min" : 6.3760978988,
          "estimated_diameter_max" : 14.2573883328
        },
        "miles" : {
          "estimated_diameter_min" : 0.0039619223,
          "estimated_diameter_max" : 0.0088591276
        },
        "feet" : {
          "estimated_diameter_min" : 20.9189570301,
          "estimated_diameter_max" : 46.7762099378
        }
      },
      "is_potentially_hazardous_asteroid" : false,
      "close_approach_data" : [ {
        "close_approach_date" : "2015-03-22",
        "epoch_date_close_approach" : 1427007600000,
        "relative_velocity" : {
          "kilometers_per_second" : "5.2112106515",
          "kilometers_per_hour" : "18760.3583453834",
          "miles_per_hour" : "11656.95710633"
        },
        "miss_distance" : {
          "astronomical" : "0.096823953",
          "lunar" : "37.664516449",
          "kilometers" : "14484657",
          "miles" : "9000349"
        },
        "orbiting_body" : "Earth"
      } ],
      "orbital_data" : {
        "orbit_id" : "6",
        "orbit_determination_date" : "2017-04-06 08:26:40",
        "orbit_uncertainty" : "5",
        "minimum_orbit_intersection" : ".0208596",
        "jupiter_tisserand_invariant" : "6.134",
        "epoch_osculation" : "2458000.5",
        "eccentricity" : ".0873067381216802",
        "semi_major_axis" : ".9878352207970097",
        "inclination" : "3.157939300255665",
        "ascending_node_longitude" : "19.35491592307823",
        "orbital_period" : "358.6123046016307",
        "perihelion_distance" : ".901590549867513",
        "perihelion_argument" : "54.3395365344397",
        "aphelion_distance" : "1.074079891726506",
        "perihelion_time" : "2458088.382600664259",
        "mean_anomaly" : "271.777326563631",
        "mean_motion" : "1.003869625722717",
        "equinox" : "J2000"
      }
    } ]
  }
}